{"fetched_at":"2026-07-24T07:06:27.443Z","source":"https://celestrak.org/NORAD/elements/gp.php?NAME=FIREFLY&FORMAT=JSON","constellation":"pixxel","records":[{"OBJECT_NAME":"FIREFLY-1","OBJECT_ID":"2025-009CW","EPOCH":"2026-07-23T19:51:19.202112","CLASSIFICATION_TYPE":"U","MEAN_MOTION":14.92756391,"ECCENTRICITY":0.0003309,"INCLINATION":97.7055,"RA_OF_ASC_NODE":282.1956,"ARG_OF_PERICENTER":188.8092,"MEAN_ANOMALY":171.307,"EPHEMERIS_TYPE":0,"NORAD_CAT_ID":62701,"ELEMENT_SET_NO":999,"REV_AT_EPOCH":8278,"BSTAR":0.00014568,"MEAN_MOTION_DOT":0.00001449,"MEAN_MOTION_DDOT":0},{"OBJECT_NAME":"FIREFLY-2","OBJECT_ID":"2025-009CZ","EPOCH":"2026-07-23T16:06:28.916928","CLASSIFICATION_TYPE":"U","MEAN_MOTION":14.92748896,"ECCENTRICITY":0.0005662,"INCLINATION":97.7012,"RA_OF_ASC_NODE":281.8078,"ARG_OF_PERICENTER":333.1606,"MEAN_ANOMALY":26.932,"EPHEMERIS_TYPE":0,"NORAD_CAT_ID":62704,"ELEMENT_SET_NO":999,"REV_AT_EPOCH":8276,"BSTAR":0.000089942,"MEAN_MOTION_DOT":0.00000873,"MEAN_MOTION_DDOT":0},{"OBJECT_NAME":"FIREFLY-3","OBJECT_ID":"2025-009DF","EPOCH":"2026-07-23T20:24:00.660960","CLASSIFICATION_TYPE":"U","MEAN_MOTION":14.92816115,"ECCENTRICITY":0.0004368,"INCLINATION":97.7046,"RA_OF_ASC_NODE":282.2472,"ARG_OF_PERICENTER":52.621,"MEAN_ANOMALY":307.5406,"EPHEMERIS_TYPE":0,"NORAD_CAT_ID":62710,"ELEMENT_SET_NO":999,"REV_AT_EPOCH":8280,"BSTAR":0.00011533,"MEAN_MOTION_DOT":0.00001138,"MEAN_MOTION_DDOT":0}]}
